POLARIS DAWN            
1 61042U 24161A   24258.23035657  .00382229  10090-4  52089-3 0  9996
2 61042  51.6530   8.1021 0386963  62.7737 301.2123 15.37086641   580
